STARLINK-4502           
1 53557U 22101AG  26068.39774636 -.00000098  00000+0  11913-4 0  9994
2 53557  53.2171  65.4309 0001319  90.3610 269.7533 15.08837837196917
PRSC-S1                 
1 65055U 25164A   26068.60758212  .00007316  00000+0  46631-3 0  9991
2 65055  41.1290 129.3637 0004466 348.3012  11.7698 15.08919510 33403
